NORAD_CAT_ID,OBJECT_NAME,OBJECT_TYPE,EPOCH,MEAN_MOTION,ECCENTRICITY,INCLINATION,RA_OF_ASC_NODE,ARG_OF_PERICENTER,MEAN_ANOMALY,BSTAR,MEAN_MOTION_DOT,MEAN_MOTION_DDOT,TLE_LINE0,TLE_LINE1,TLE_LINE2,SEMIMAJOR_AXIS,PERIOD,APOGEE,PERIGEE,DECAYED
50172.0,STARLINK-3287,PAYLOAD,2023-08-29 20:07:42,15.08842057,0.0001381,53.2182,71.9608,102.2251,257.8896,5.0004e-05,5.08e-06,0.0,0 STARLINK-3287,1 50172U 21125S   23241.83868805  .00000508  00000-0  50004-4 0  9990,2 50172  53.2182  71.9608 0001381 102.2251 257.8896 15.08842057 97310,6917.874,95.437,540.694,538.784,0.0
50172.0,STARLINK-3287,PAYLOAD,2023-08-30 05:40:01,15.08842536,0.000141,53.2191,70.1746,88.2826,271.8327,4.8584e-05,4.85e-06,0.0,0 STARLINK-3287,1 50172U 21125S   23242.23612804  .00000485  00000-0  48584-4 0  9995,2 50172  53.2191  70.1746 0001410  88.2826 271.8327 15.08842536 97371,6917.873,95.437,540.713,538.762,0.0
50172.0,STARLINK-3287,PAYLOAD,2023-08-31 11:52:21,15.08833478,0.0001339,53.2183,64.526,87.5612,272.5533,5.1019e-05,5.24e-06,0.0,0 STARLINK-3287,1 50172U 21125S   23243.49469646  .00000524  00000-0  51019-4 0  9999,2 50172  53.2183  64.5260 0001339  87.5612 272.5533 15.08833478 97041,6917.9,95.438,540.692,538.839,0.0
50172.0,STARLINK-3287,PAYLOAD,2023-09-01 05:21:36,15.08824508,0.0001371,53.2168,61.255,89.1585,270.9565,0.0001916,2.761e-05,0.0,0 STARLINK-3287,1 50172U 21125S   23244.22334103  .00002761  00000-0  19160-3 0  9995,2 50172  53.2168  61.2550 0001371  89.1585 270.9565 15.08824508 97673,6917.928,95.439,540.741,538.844,0.0
50172.0,STARLINK-3287,PAYLOAD,2023-09-01 19:40:03,15.08843676,0.0001317,53.2181,58.5782,87.9533,272.161,8.3638e-05,1.044e-05,0.0,0 STARLINK-3287,1 50172U 21125S   23244.81949069  .00001044  00000-0  83638-4 0  9998,2 50172  53.2181  58.5782 0001317  87.9533 272.1610 15.08843676 97248,6917.869,95.437,540.645,538.823,0.0
50172.0,STARLINK-3287,PAYLOAD,2023-09-01 21:15:27,15.08840818,0.000155,53.2162,58.2793,89.6517,270.4653,0.00012104,1.639e-05,0.0,0 STARLINK-3287,1 50172U 21125S   23244.88573091  .00001639  00000-0  12104-3 0  9992,2 50172  53.2162  58.2793 0001550  89.6517 270.4653 15.08840818 97777,6917.878,95.438,540.815,538.671,0.0
50172.0,STARLINK-3287,PAYLOAD,2023-09-02 11:33:55,15.08838456,0.0001665,53.216,55.603,89.3001,270.8182,8.3608e-05,1.043e-05,0.0,0 STARLINK-3287,1 50172U 21125S   23245.48189496  .00001043  00000-0  83608-4 0  9998,2 50172  53.2160  55.6030 0001665  89.3001 270.8182 15.08838456 97341,6917.885,95.438,540.902,538.598,0.0
50172.0,STARLINK-3287,PAYLOAD,2023-09-02 13:09:18,15.0883618,0.0001519,53.2162,55.3059,89.5585,270.5581,6.8666e-05,8.05e-06,0.0,0 STARLINK-3287,1 50172U 21125S   23245.54813653  .00000805  00000-0  68666-4 0  9996,2 50172  53.2162  55.3059 0001519  89.5585 270.5581 15.08836180 97878,6917.892,95.438,540.808,538.706,0.0
50172.0,STARLINK-3287,PAYLOAD,2023-09-02 19:30:50,15.08846596,0.0001221,53.2181,54.1175,88.5984,271.5148,0.00011474,1.539e-05,0.0,0 STARLINK-3287,1 50172U 21125S   23245.81308871  .00001539  00000-0  11474-3 0  9996,2 50172  53.2181  54.1175 0001221  88.5984 271.5148 15.08846596 97914,6917.86,95.437,540.57,538.881,0.0
50172.0,STARLINK-3287,PAYLOAD,2023-09-03 13:00:05,15.08841123,0.00014,53.2182,50.8456,89.0773,271.038,2.7605e-05,1.51e-06,0.0,0 STARLINK-3287,1 50172U 21125S   23246.54173445  .00000151  00000-0  27605-4 0  9997,2 50172  53.2182  50.8456 0001400  89.0773 271.0380 15.08841123 98028,6917.877,95.437,540.71,538.773,0.0
50172.0,STARLINK-3287,PAYLOAD,2023-09-03 17:46:14,15.08844635,0.0001284,53.2181,49.9534,90.8029,269.311,5.5327e-05,5.93e-06,0.0,0 STARLINK-3287,1 50172U 21125S   23246.74045043  .00000593  00000-0  55327-4 0  9993,2 50172  53.2181  49.9534 0001284  90.8029 269.3110 15.08844635 97534,6917.866,95.437,540.619,538.843,0.0
50172.0,STARLINK-3287,PAYLOAD,2023-09-04 11:15:30,15.08830805,0.0001433,53.2189,46.6838,93.209,266.9066,-1.5045e-05,-5.27e-06,0.0,0 STARLINK-3287,1 50172U 21125S   23247.46910194 -.00000527  00000-0 -15045-4 0  9993,2 50172  53.2189  46.6838 0001433  93.2090 266.9066 15.08830805 98161,6917.908,95.438,540.765,538.782,0.0
50172.0,STARLINK-3287,PAYLOAD,2023-09-04 17:37:02,15.08834285,0.000143,53.2181,45.4955,91.9446,268.171,1.9672e-05,2.5e-07,0.0,0 STARLINK-3287,1 50172U 21125S   23247.73405970  .00000025  00000-0  19672-4 0  9995,2 50172  53.2181  45.4955 0001430  91.9446 268.1710 15.08834285 97689,6917.898,95.438,540.752,538.774,0.0
50172.0,STARLINK-3287,PAYLOAD,2023-09-05 11:06:17,15.08839352,0.0001325,53.2179,42.223,90.8915,269.2229,4.2995e-05,3.96e-06,0.0,0 STARLINK-3287,1 50172U 21125S   23248.46269738  .00000396  00000-0  42995-4 0  9991,2 50172  53.2179  42.2230 0001325  90.8915 269.2229 15.08839352 98317,6917.882,95.438,540.664,538.831,0.0
50172.0,STARLINK-3287,PAYLOAD,2023-09-05 17:27:49,15.0884525,0.0001374,53.2183,41.0344,91.2138,268.9012,8.2058e-05,1.018e-05,0.0,0 STARLINK-3287,1 50172U 21125S   23248.72765241  .00001018  00000-0  82058-4 0  9996,2 50172  53.2183  41.0344 0001374  91.2138 268.9012 15.08845250 97837,6917.864,95.437,540.68,538.779,0.0
50172.0,STARLINK-3287,PAYLOAD,2023-09-06 03:00:08,15.08843431,0.0001324,53.2184,39.2509,92.5987,267.5157,-1.5764e-05,-5.39e-06,0.0,0 STARLINK-3287,1 50172U 21125S   23249.12509638 -.00000539  00000-0 -15764-4 0  9996,2 50172  53.2184  39.2509 0001324  92.5987 267.5157 15.08843431 97891,6917.87,95.437,540.651,538.819,0.0
50172.0,STARLINK-3287,PAYLOAD,2023-09-06 18:54:00,15.08834955,0.0001236,53.2189,36.2781,91.1084,269.0049,6.6059e-05,7.63e-06,0.0,0 STARLINK-3287,1 50172U 21125S   23249.78750250  .00000763  00000-0  66059-4 0  9996,2 50172  53.2189  36.2781 0001236  91.1084 269.0049 15.08834955 98518,6917.896,95.438,540.616,538.906,0.0
50172.0,STARLINK-3287,PAYLOAD,2023-09-07 10:47:51,15.08838251,9.17e-05,53.2186,33.303,98.3724,261.7372,1.7458e-05,-1e-07,0.0,0 STARLINK-3287,1 50172U 21125S   23250.44990173 -.00000010  00000-0  17458-4 0  9996,2 50172  53.2186  33.3030 0000917  98.3724 261.7372 15.08838251 98099,6917.886,95.438,540.385,539.116,0.0
50172.0,STARLINK-3287,PAYLOAD,2023-09-07 18:44:46,15.08849277,0.0001274,53.2178,31.8142,82.6851,277.4285,7.2705e-05,8.7e-06,0.0,0 STARLINK-3287,1 50172U 21125S   23250.78109349  .00000870  00000-0  72705-4 0  9999,2 50172  53.2178  31.8142 0001274  82.6851 277.4285 15.08849277 98661,6917.852,95.437,540.598,538.836,0.0
50172.0,STARLINK-3287,PAYLOAD,2023-09-08 02:41:42,15.08846259,0.0001346,53.2189,30.3282,76.9626,283.1516,4.3196e-05,4e-06,0.0,0 STARLINK-3287,1 50172U 21125S   23251.11229575  .00000400  00000-0  43196-4 0  9992,2 50172  53.2189  30.3282 0001346  76.9626 283.1516 15.08846259 98194,6917.861,95.437,540.657,538.795,0.0
50172.0,STARLINK-3287,PAYLOAD,2023-09-08 13:49:24,15.08839705,0.0001798,53.2196,28.2453,80.6697,279.4498,7.3531e-05,8.82e-06,0.0,0 STARLINK-3287,1 50172U 21125S   23251.57598059  .00000882  00000-0  73531-4 0  9998,2 50172  53.2196  28.2453 0001798  80.6697 279.4498 15.08839705 98789,6917.881,95.438,540.99,538.502,0.0
50172.0,STARLINK-3287,PAYLOAD,2023-09-08 18:35:33,15.08846592,0.0001176,53.2182,27.3551,84.9036,275.2091,1.1536e-05,-1.04e-06,0.0,0 STARLINK-3287,1 50172U 21125S   23251.77469652 -.00000104  00000-0  11536-4 0  9991,2 50172  53.2182  27.3551 0001176  84.9036 275.2091 15.08846592 98816,6917.86,95.437,540.539,538.912,0.0
50172.0,STARLINK-3287,PAYLOAD,2023-09-09 08:54:02,15.08836287,0.0001132,53.218,24.6795,80.26,279.852,6.8368e-05,8e-06,0.0,0 STARLINK-3287,1 50172U 21125S   23252.37086133  .00000800  00000-0  68368-4 0  9994,2 50172  53.2180  24.6795 0001132  80.2600 279.8520 15.08836287 98381,6917.892,95.438,540.54,538.974,0.0
50172.0,STARLINK-3287,PAYLOAD,2023-09-09 13:40:11,15.08839949,0.0001272,53.2181,23.7874,79.9672,280.1463,6.1155e-05,6.86e-06,0.0,0 STARLINK-3287,1 50172U 21125S   23252.56958000  .00000686  00000-0  61155-4 0  9995,2 50172  53.2181  23.7874 0001272  79.9672 280.1463 15.08839949 98939,6917.881,95.438,540.625,538.866,0.0
50172.0,STARLINK-3287,PAYLOAD,2023-09-09 16:50:57,15.08846163,0.0001427,53.2185,23.1913,84.3375,275.7779,3.5985e-05,2.85e-06,0.0,0 STARLINK-3287,1 50172U 21125S   23252.70205652  .00000285  00000-0  35985-4 0  9996,2 50172  53.2185  23.1913 0001427  84.3375 275.7779 15.08846163 98434,6917.862,95.437,540.714,538.739,0.0
50172.0,STARLINK-3287,PAYLOAD,2023-09-10 13:30:58,15.08839044,0.0001429,53.2199,19.3257,86.5887,273.5269,5.8944e-05,6.5e-06,0.0,0 STARLINK-3287,1 50172U 21125S   23253.56317991  .00000650  00000-0  58944-4 0  9997,2 50172  53.2199  19.3257 0001429  86.5887 273.5269 15.08839044 99083,6917.883,95.438,540.737,538.76,0.0
50172.0,STARLINK-3287,PAYLOAD,2023-09-10 16:41:44,15.08844507,0.0001478,53.2203,18.7305,90.5931,269.523,4.6374e-05,4.5e-06,0.0,0 STARLINK-3287,1 50172U 21125S   23253.69565690  .00000450  00000-0  46374-4 0  9994,2 50172  53.2203  18.7305 0001478  90.5931 269.5230 15.08844507 98582,6917.867,95.437,540.754,538.709,0.0
50172.0,STARLINK-3287,PAYLOAD,2023-09-11 14:57:08,15.08843557,0.0001401,53.2204,14.5679,88.422,271.6933,3.0022e-05,1.9e-06,0.0,0 STARLINK-3287,1 50172U 21125S   23254.62301917  .00000190  00000-0  30022-4 0  9992,2 50172  53.2204  14.5679 0001401  88.4220 271.6933 15.08843557 99246,6917.87,95.437,540.704,538.765,0.0
50172.0,STARLINK-3287,PAYLOAD,2023-09-12 00:29:27,15.08845918,0.0001398,53.2205,12.7835,88.2909,271.8243,5.3237e-05,5.6e-06,0.0,0 STARLINK-3287,1 50172U 21125S   23255.02045611  .00000560  00000-0  53237-4 0  9997,2 50172  53.2205  12.7835 0001398  88.2909 271.8243 15.08845918 98785,6917.862,95.437,540.694,538.76,0.0
50172.0,STARLINK-3287,PAYLOAD,2023-09-12 06:51:00,15.08838008,0.0001344,53.2201,11.5962,92.5394,267.5752,5.1847e-05,5.37e-06,0.0,0 STARLINK-3287,1 50172U 21125S   23255.28542155  .00000537  00000-0  51847-4 0  9999,2 50172  53.2201  11.5962 0001344  92.5394 267.5752 15.08838008 98820,6917.886,95.438,540.681,538.822,0.0
